[{"OBJECT_NAME":"STARLINK-1543","OBJECT_ID":"2020-055AC","EPOCH":"2026-03-09T16:00:03.000096","MEAN_MOTION":15.30163255,"ECCENTRICITY":0.0001413,"INCLINATION":53.1586,"RA_OF_ASC_NODE":114.0187,"ARG_OF_PERICENTER":89.7263,"MEAN_ANOMALY":198.6794,"EPHEMERIS_TYPE":0,"CLASSIFICATION_TYPE":"U","NORAD_CAT_ID":46053,"ELEMENT_SET_NO":999,"REV_AT_EPOCH":574,"BSTAR":0.00049937,"MEAN_MOTION_DOT":0.00014443,"MEAN_MOTION_DDOT":0},{"OBJECT_NAME":"STARLINK-30494","OBJECT_ID":"2023-151G","EPOCH":"2026-03-09T08:39:06.366240","MEAN_MOTION":15.28417441,"ECCENTRICITY":0.00011553,"INCLINATION":43.0027,"RA_OF_ASC_NODE":192.4566,"ARG_OF_PERICENTER":241.5536,"MEAN_ANOMALY":118.52,"EPHEMERIS_TYPE":0,"CLASSIFICATION_TYPE":"U","NORAD_CAT_ID":57970,"ELEMENT_SET_NO":999,"REV_AT_EPOCH":13740,"BSTAR":-3.569111e-5,"MEAN_MOTION_DOT":-1.272e-5,"MEAN_MOTION_DDOT":0}]
